<?xml version='1.0' encoding='utf-8'?>
<q:quakeml xmlns:q="http://quakeml.org/xmlns/quakeml/1.2" xmlns:ns0="http://erdbeben-in-bayern.de/xmlns/0.1" xmlns="http://quakeml.org/xmlns/bed/1.2">
  <eventParameters publicID="smi:local/244b4846-63a7-4ce9-93b4-81455e10b3fe">
    <event publicID="smi:local/0">
      <preferredOriginID>smi:local/426fff43-6893-42a7-b2bb-24e21c104ebe</preferredOriginID>
      <preferredMagnitudeID>smi:de.erdbeben-in-bayern/magnitude/d802986f-2579-41e5-92ee-197e6abcc1f2</preferredMagnitudeID>
      <creationInfo>
        <agencyID>Erdbebendienst Bayern</agencyID>
        <agencyURI>smi:de.erdbeben-in-bayern/agency</agencyURI>
        <author>megies</author>
        <creationTime>2014-09-19T14:58:18.281839Z</creationTime>
      </creationInfo>
      <origin publicID="smi:de.erdbeben-in-bayern/origin/b8fc328e-4e42-4cc9-9228-adc6ee5c61f2">
        <time>
          <value>2010-05-22T16:57:01.229287Z</value>
        </time>
        <latitude>
          <value>48.0434</value>
        </latitude>
        <longitude>
          <value>11.6399</value>
        </longitude>
        <depth>
          <value>4399.902</value>
          <uncertainty>378.772098169</uncertainty>
        </depth>
        <depthType>from location</depthType>
        <methodID>smi:de.erdbeben-in-bayern/location_method/NLLoc/1</methodID>
        <earthModelID>smi:de.erdbeben-in-bayern/earth_model/UH/1</earthModelID>
        <quality>
          <associatedPhaseCount>8</associatedPhaseCount>
          <usedPhaseCount>8</usedPhaseCount>
          <associatedStationCount>4</associatedStationCount>
          <usedStationCount>4</usedStationCount>
          <depthPhaseCount>0</depthPhaseCount>
          <standardError>0.035181</standardError>
          <azimuthalGap>120.0</azimuthalGap>
          <minimumDistance>0.0126303305425</minimumDistance>
          <maximumDistance>0.0708061899182</maximumDistance>
          <medianDistance>0.0349669403791</medianDistance>
          <ns0:usedPhaseCountP>4</ns0:usedPhaseCountP>
          <ns0:usedPhaseCountS>4</ns0:usedPhaseCountS>
        </quality>
        <originUncertainty>
          <preferredDescription>uncertainty ellipse</preferredDescription>
          <minHorizontalUncertainty>246.790143795</minHorizontalUncertainty>
          <maxHorizontalUncertainty>274.12112434</maxHorizontalUncertainty>
          <azimuthMaxHorizontalUncertainty>0.0</azimuthMaxHorizontalUncertainty>
        </originUncertainty>
        <arrival publicID="smi:de.erdbeben-in-bayern/arrival/d6b7ad99-2728-4569-a2b7-eda4e9366258">
          <pickID>smi:de.erdbeben-in-bayern/pick/cb1b9672-5abb-4ec8-b35f-3f5338975f8c</pickID>
          <phase>P</phase>
          <azimuth>355.0</azimuth>
          <distance>0.0381783686901</distance>
          <timeResidual>-0.0307</timeResidual>
          <timeWeight>1.0811</timeWeight>
        </arrival>
        <arrival publicID="smi:de.erdbeben-in-bayern/arrival/ea122c5f-e157-49f4-9007-1890f8ed9f5f">
          <pickID>smi:de.erdbeben-in-bayern/pick/7f825987-854d-4d43-8000-f07733617802</pickID>
          <phase>S</phase>
          <azimuth>354.9</azimuth>
          <distance>0.0381783686901</distance>
          <timeResidual>-0.0051</timeResidual>
          <timeWeight>1.0811</timeWeight>
        </arrival>
        <arrival publicID="smi:de.erdbeben-in-bayern/arrival/309b1c23-43e1-49c9-af23-99f6d6855230">
          <pickID>smi:de.erdbeben-in-bayern/pick/13079d2a-5726-42d9-b07b-92fa6bc80037</pickID>
          <phase>P</phase>
          <azimuth>61.8</azimuth>
          <distance>0.0317555120683</distance>
          <timeResidual>-0.0133</timeResidual>
          <timeWeight>1.0811</timeWeight>
        </arrival>
        <arrival publicID="smi:de.erdbeben-in-bayern/arrival/040c7ca7-15c8-457e-b615-48212d18aa4e">
          <pickID>smi:de.erdbeben-in-bayern/pick/193f3398-7280-4e33-8b78-4ca639c149ce</pickID>
          <phase>S</phase>
          <azimuth>60.6</azimuth>
          <distance>0.0317555120683</distance>
          <timeResidual>0.0408</timeResidual>
          <timeWeight>1.0811</timeWeight>
        </arrival>
        <arrival publicID="smi:de.erdbeben-in-bayern/arrival/cfd1619d-97c0-4b04-9f09-63efe01a0c7b">
          <pickID>smi:de.erdbeben-in-bayern/pick/413ea96f-ad43-418e-bd1e-d3ea2ad5d4f4</pickID>
          <phase>P</phase>
          <azimuth>187.4</azimuth>
          <distance>0.0126303305425</distance>
          <timeResidual>-0.0493</timeResidual>
          <timeWeight>1.0811</timeWeight>
        </arrival>
        <arrival publicID="smi:de.erdbeben-in-bayern/arrival/50ac93b1-7286-4694-b037-6e53d6c9337c">
          <pickID>smi:de.erdbeben-in-bayern/pick/1d4c1ea8-75c9-4cd1-bb4e-785c5266f5e3</pickID>
          <phase>S</phase>
          <azimuth>187.7</azimuth>
          <distance>0.0126303305425</distance>
          <timeResidual>0.0016</timeResidual>
          <timeWeight>1.0811</timeWeight>
        </arrival>
        <arrival publicID="smi:de.erdbeben-in-bayern/arrival/e63a10f8-89a2-4252-bdea-bda1b7d08e64">
          <pickID>smi:de.erdbeben-in-bayern/pick/18278241-769b-4177-bf49-33e8d5af6d6c</pickID>
          <phase>P</phase>
          <azimuth>260.5</azimuth>
          <distance>0.0708061899182</distance>
          <timeResidual>0.0618</timeResidual>
          <timeWeight>1.0811</timeWeight>
        </arrival>
        <arrival publicID="smi:de.erdbeben-in-bayern/arrival/4925d5f8-191c-4b52-9802-a1cb46f16690">
          <pickID>smi:de.erdbeben-in-bayern/pick/5afc5005-c228-4318-a603-309d42bb3281</pickID>
          <phase>S</phase>
          <azimuth>260.3</azimuth>
          <distance>0.0708061899182</distance>
          <timeResidual>-0.0144</timeResidual>
          <timeWeight>0.4324</timeWeight>
        </arrival>
      </origin>
      <origin publicID="smi:local/426fff43-6893-42a7-b2bb-24e21c104ebe">
        <time>
          <value>2010-05-22T16:57:01.229287Z</value>
        </time>
        <latitude>
          <value>48.045313</value>
        </latitude>
        <longitude>
          <value>11.637985</value>
        </longitude>
        <depth>
          <value>4328.0</value>
        </depth>
        <methodID>smi:local/hypodd</methodID>
        <comment id="smi:local/76b9c8c7-5624-4198-9799-cef2bccc6d42">
          <text>Old HypoDD relocation, based on initial NonLinLoc absolute location.</text>
        </comment>
        <creationInfo>
          <creationTime>2012-02-01T00:00:00.000000Z</creationTime>
        </creationInfo>
      </origin>
      <magnitude publicID="smi:de.erdbeben-in-bayern/magnitude/d802986f-2579-41e5-92ee-197e6abcc1f2">
        <mag>
          <value>0.660187289567</value>
          <uncertainty>0.189184904597</uncertainty>
          <confidenceLevel>68.3</confidenceLevel>
        </mag>
        <type>Ml</type>
        <originID>smi:de.erdbeben-in-bayern/origin/b8fc328e-4e42-4cc9-9228-adc6ee5c61f2</originID>
        <methodID>smi:de.erdbeben-in-bayern/magnitude_method/obspy/1</methodID>
        <stationCount>4</stationCount>
        <stationMagnitudeContribution>
          <stationMagnitudeID>smi:de.erdbeben-in-bayern/station_magnitude/c5a2d971-fd17-45a2-bdce-81637a68f77e</stationMagnitudeID>
          <weight>0.25</weight>
        </stationMagnitudeContribution>
        <stationMagnitudeContribution>
          <stationMagnitudeID>smi:de.erdbeben-in-bayern/station_magnitude/a8536d5e-14e2-4e21-b0c2-9672e498d788</stationMagnitudeID>
          <weight>0.25</weight>
        </stationMagnitudeContribution>
        <stationMagnitudeContribution>
          <stationMagnitudeID>smi:de.erdbeben-in-bayern/station_magnitude/7aff3f34-29d4-4914-b977-5007a125b90c</stationMagnitudeID>
          <weight>0.25</weight>
        </stationMagnitudeContribution>
        <stationMagnitudeContribution>
          <stationMagnitudeID>smi:de.erdbeben-in-bayern/station_magnitude/d12b2073-dd70-4e8c-8a65-7fb2568852ef</stationMagnitudeID>
          <weight>0.25</weight>
        </stationMagnitudeContribution>
      </magnitude>
      <stationMagnitude publicID="smi:de.erdbeben-in-bayern/station_magnitude/c5a2d971-fd17-45a2-bdce-81637a68f77e">
        <originID>smi:de.erdbeben-in-bayern/origin/b8fc328e-4e42-4cc9-9228-adc6ee5c61f2</originID>
        <mag>
          <value>0.895201693625</value>
        </mag>
        <methodID>smi:de.erdbeben-in-bayern/station_magnitude_method/obspyck/1</methodID>
        <waveformID locationCode="" networkCode="BW" stationCode="UH1"></waveformID>
      </stationMagnitude>
      <stationMagnitude publicID="smi:de.erdbeben-in-bayern/station_magnitude/a8536d5e-14e2-4e21-b0c2-9672e498d788">
        <originID>smi:de.erdbeben-in-bayern/origin/b8fc328e-4e42-4cc9-9228-adc6ee5c61f2</originID>
        <mag>
          <value>0.777185746465</value>
        </mag>
        <methodID>smi:de.erdbeben-in-bayern/station_magnitude_method/obspyck/1</methodID>
        <waveformID locationCode="" networkCode="BW" stationCode="UH2"></waveformID>
      </stationMagnitude>
      <stationMagnitude publicID="smi:de.erdbeben-in-bayern/station_magnitude/7aff3f34-29d4-4914-b977-5007a125b90c">
        <originID>smi:de.erdbeben-in-bayern/origin/b8fc328e-4e42-4cc9-9228-adc6ee5c61f2</originID>
        <mag>
          <value>0.56256062797</value>
        </mag>
        <methodID>smi:de.erdbeben-in-bayern/station_magnitude_method/obspyck/1</methodID>
        <waveformID locationCode="" networkCode="BW" stationCode="UH3"></waveformID>
      </stationMagnitude>
      <stationMagnitude publicID="smi:de.erdbeben-in-bayern/station_magnitude/d12b2073-dd70-4e8c-8a65-7fb2568852ef">
        <originID>smi:de.erdbeben-in-bayern/origin/b8fc328e-4e42-4cc9-9228-adc6ee5c61f2</originID>
        <mag>
          <value>0.405801090209</value>
        </mag>
        <methodID>smi:de.erdbeben-in-bayern/station_magnitude_method/obspyck/1</methodID>
        <waveformID locationCode="" networkCode="BW" stationCode="UH4"></waveformID>
      </stationMagnitude>
      <pick publicID="smi:de.erdbeben-in-bayern/pick/cb1b9672-5abb-4ec8-b35f-3f5338975f8c">
        <time>
          <value>2010-05-22T16:57:02.745000Z</value>
          <uncertainty>0.015</uncertainty>
        </time>
        <waveformID channelCode="EHZ" locationCode="" networkCode="BW" stationCode="UH1"></waveformID>
        <phaseHint>P</phaseHint>
        <polarity>negative</polarity>
        <ns0:weight>0</ns0:weight>
      </pick>
      <pick publicID="smi:de.erdbeben-in-bayern/pick/7f825987-854d-4d43-8000-f07733617802">
        <time>
          <value>2010-05-22T16:57:04.110000Z</value>
          <uncertainty>0.045</uncertainty>
        </time>
        <waveformID channelCode="EHE" locationCode="" networkCode="BW" stationCode="UH1"></waveformID>
        <phaseHint>S</phaseHint>
        <ns0:weight>0</ns0:weight>
      </pick>
      <pick publicID="smi:de.erdbeben-in-bayern/pick/13079d2a-5726-42d9-b07b-92fa6bc80037">
        <time>
          <value>2010-05-22T16:57:02.684999Z</value>
          <uncertainty>0.01</uncertainty>
        </time>
        <waveformID channelCode="EHZ" locationCode="" networkCode="BW" stationCode="UH2"></waveformID>
        <phaseHint>P</phaseHint>
        <polarity>negative</polarity>
        <ns0:weight>0</ns0:weight>
      </pick>
      <pick publicID="smi:de.erdbeben-in-bayern/pick/193f3398-7280-4e33-8b78-4ca639c149ce">
        <time>
          <value>2010-05-22T16:57:03.989999Z</value>
          <uncertainty>0.03</uncertainty>
        </time>
        <waveformID channelCode="EHN" locationCode="" networkCode="BW" stationCode="UH2"></waveformID>
        <phaseHint>S</phaseHint>
        <ns0:weight>0</ns0:weight>
      </pick>
      <pick publicID="smi:de.erdbeben-in-bayern/pick/413ea96f-ad43-418e-bd1e-d3ea2ad5d4f4">
        <time>
          <value>2010-05-22T16:57:02.449999Z</value>
          <uncertainty>0.035</uncertainty>
        </time>
        <waveformID channelCode="EHZ" locationCode="" networkCode="BW" stationCode="UH3"></waveformID>
        <phaseHint>P</phaseHint>
        <ns0:weight>0</ns0:weight>
      </pick>
      <pick publicID="smi:de.erdbeben-in-bayern/pick/1d4c1ea8-75c9-4cd1-bb4e-785c5266f5e3">
        <time>
          <value>2010-05-22T16:57:03.569999Z</value>
          <uncertainty>0.02</uncertainty>
        </time>
        <waveformID channelCode="EHN" locationCode="" networkCode="BW" stationCode="UH3"></waveformID>
        <phaseHint>S</phaseHint>
        <ns0:weight>0</ns0:weight>
      </pick>
      <pick publicID="smi:de.erdbeben-in-bayern/pick/18278241-769b-4177-bf49-33e8d5af6d6c">
        <time>
          <value>2010-05-22T16:57:03.450000Z</value>
          <uncertainty>0.035</uncertainty>
        </time>
        <waveformID channelCode="EHZ" locationCode="" networkCode="BW" stationCode="UH4"></waveformID>
        <phaseHint>P</phaseHint>
        <ns0:weight>0</ns0:weight>
      </pick>
      <pick publicID="smi:de.erdbeben-in-bayern/pick/5afc5005-c228-4318-a603-309d42bb3281">
        <time>
          <value>2010-05-22T16:57:05.335000Z</value>
          <uncertainty>0.05</uncertainty>
        </time>
        <waveformID channelCode="EHE" locationCode="" networkCode="BW" stationCode="UH4"></waveformID>
        <phaseHint>S</phaseHint>
        <ns0:weight>1</ns0:weight>
      </pick>
      <ns0:public>false</ns0:public>
      <ns0:evaluationMode>manual</ns0:evaluationMode>
    </event>
    <event publicID="smi:local/1">
      <preferredOriginID>smi:local/22d17737-9a37-4509-8b51-9f727fb8d37a</preferredOriginID>
      <preferredMagnitudeID>smi:de.erdbeben-in-bayern/magnitude/a312310c-171e-442e-ac32-f241c5f6f9e7</preferredMagnitudeID>
      <creationInfo>
        <agencyID>Erdbebendienst Bayern</agencyID>
        <agencyURI>smi:de.erdbeben-in-bayern/agency</agencyURI>
        <author>megies</author>
        <creationTime>2014-09-19T14:58:18.281839Z</creationTime>
      </creationInfo>
      <origin publicID="smi:de.erdbeben-in-bayern/origin/2a917493-466c-4586-a9f0-249ad6efb8e8">
        <time>
          <value>2010-05-27T15:24:25.120781Z</value>
        </time>
        <latitude>
          <value>48.0459</value>
        </latitude>
        <longitude>
          <value>11.6478</value>
        </longitude>
        <depth>
          <value>4349.951</value>
          <uncertainty>469.737362752</uncertainty>
        </depth>
        <depthType>from location</depthType>
        <methodID>smi:de.erdbeben-in-bayern/location_method/NLLoc/1</methodID>
        <earthModelID>smi:de.erdbeben-in-bayern/earth_model/UH/1</earthModelID>
        <quality>
          <associatedPhaseCount>7</associatedPhaseCount>
          <usedPhaseCount>7</usedPhaseCount>
          <associatedStationCount>4</associatedStationCount>
          <usedStationCount>4</usedStationCount>
          <depthPhaseCount>0</depthPhaseCount>
          <standardError>0.019806</standardError>
          <azimuthalGap>139.0</azimuthalGap>
          <minimumDistance>0.0162641880402</minimumDistance>
          <maximumDistance>0.0764465192214</maximumDistance>
          <medianDistance>0.0311759391055</medianDistance>
          <ns0:usedPhaseCountP>4</ns0:usedPhaseCountP>
          <ns0:usedPhaseCountS>3</ns0:usedPhaseCountS>
        </quality>
        <originUncertainty>
          <preferredDescription>uncertainty ellipse</preferredDescription>
          <minHorizontalUncertainty>276.099939955</minHorizontalUncertainty>
          <maxHorizontalUncertainty>348.250441619</maxHorizontalUncertainty>
          <azimuthMaxHorizontalUncertainty>90.0</azimuthMaxHorizontalUncertainty>
        </originUncertainty>
        <arrival publicID="smi:de.erdbeben-in-bayern/arrival/bae792cc-00cd-4d28-8dd5-9a3e3c45d3e7">
          <pickID>smi:de.erdbeben-in-bayern/pick/e6399f04-a5b0-4994-88ce-8ab549d9c1d0</pickID>
          <phase>P</phase>
          <azimuth>346.9</azimuth>
          <distance>0.0364494956881</distance>
          <timeResidual>-0.0344</timeResidual>
          <timeWeight>1.2069</timeWeight>
        </arrival>
        <arrival publicID="smi:de.erdbeben-in-bayern/arrival/4d6a878c-047d-4010-9940-0e01ba19cd87">
          <pickID>smi:de.erdbeben-in-bayern/pick/f984a0e0-961f-403c-9694-ff3d5e2e56a2</pickID>
          <phase>S</phase>
          <azimuth>346.7</azimuth>
          <distance>0.0364494956881</distance>
          <timeResidual>0.0103</timeResidual>
          <timeWeight>1.2069</timeWeight>
        </arrival>
        <arrival publicID="smi:de.erdbeben-in-bayern/arrival/5415f977-02bf-4989-b78c-388cc4bc2db7">
          <pickID>smi:de.erdbeben-in-bayern/pick/8a165314-14f8-4fcd-9a65-aa4ba7451c61</pickID>
          <phase>P</phase>
          <azimuth>61.2</azimuth>
          <distance>0.0259023825229</distance>
          <timeResidual>0.018</timeResidual>
          <timeWeight>1.2069</timeWeight>
        </arrival>
        <arrival publicID="smi:de.erdbeben-in-bayern/arrival/d0f04782-a4cd-4d68-ac9a-c219c731c428">
          <pickID>smi:de.erdbeben-in-bayern/pick/0d44e64d-8506-40a2-963e-6dd1ab6c7540</pickID>
          <phase>S</phase>
          <azimuth>60.6</azimuth>
          <distance>0.0259023825229</distance>
          <timeResidual>0.0042</timeResidual>
          <timeWeight>0.4828</timeWeight>
        </arrival>
        <arrival publicID="smi:de.erdbeben-in-bayern/arrival/bd7071c4-4ce9-4935-9a43-22d477cda5c0">
          <pickID>smi:de.erdbeben-in-bayern/pick/e46ea7cd-d9c2-45c4-b8d7-6ebd27d54e2d</pickID>
          <phase>P</phase>
          <azimuth>207.0</azimuth>
          <distance>0.0162641880402</distance>
          <timeResidual>-0.015</timeResidual>
          <timeWeight>1.2069</timeWeight>
        </arrival>
        <arrival publicID="smi:de.erdbeben-in-bayern/arrival/0d284175-a504-4a0e-b972-ce953f56d5b1">
          <pickID>smi:de.erdbeben-in-bayern/pick/e5c97413-6b22-459c-832f-1d4051a82222</pickID>
          <phase>S</phase>
          <azimuth>207.4</azimuth>
          <distance>0.0162641880402</distance>
          <timeResidual>-0.0034</timeResidual>
          <timeWeight>0.4828</timeWeight>
        </arrival>
        <arrival publicID="smi:de.erdbeben-in-bayern/arrival/8f0861d2-d9ea-48b4-89b9-ba0b9f7fb32d">
          <pickID>smi:de.erdbeben-in-bayern/pick/3e683aba-fde1-4401-95e0-a7beb958d1e7</pickID>
          <phase>P</phase>
          <azimuth>259.4</azimuth>
          <distance>0.0764465192214</distance>
          <timeResidual>0.0207</timeResidual>
          <timeWeight>1.2069</timeWeight>
        </arrival>
      </origin>
      <origin publicID="smi:local/4ffdd07c-55e7-4dc1-90d4-93558323b086">
        <time>
          <value>2010-05-27T15:24:25.120781Z</value>
        </time>
        <latitude>
          <value>48.048128</value>
        </latitude>
        <longitude>
          <value>11.64652</value>
        </longitude>
        <depth>
          <value>4729.0</value>
        </depth>
        <methodID>smi:local/hypodd</methodID>
        <comment id="smi:local/1d9bd804-49a1-4552-b135-16084fd4b0b4">
          <text>Old HypoDD relocation, based on initial NonLinLoc absolute location.</text>
        </comment>
        <creationInfo>
          <creationTime>2012-02-01T00:00:00.000000Z</creationTime>
        </creationInfo>
      </origin>
      <origin publicID="smi:local/22d17737-9a37-4509-8b51-9f727fb8d37a">
        <time>
          <value>2010-05-27T15:24:25.120781Z</value>
        </time>
        <latitude>
          <value>48.0482777961</value>
        </latitude>
        <longitude>
          <value>11.6461378075</value>
        </longitude>
        <depth>
          <value>4798.0</value>
        </depth>
        <methodID>smi:local/master_event</methodID>
        <comment id="smi:local/22195aa9-03b4-44ee-8f50-f0a287ac42b1">
          <text>Old master-event location, based on initial NonLinLoc absolute location and subsequent HypoDD relocation. Absolute locations determined by HypoDD location of master events.</text>
        </comment>
        <creationInfo>
          <creationTime>2012-02-01T00:00:00.000000Z</creationTime>
