<?xml version='1.0' encoding='utf-8'?>
<q:quakeml xmlns:q="http://quakeml.org/xmlns/quakeml/1.2" xmlns:ns0="http://erdbeben-in-bayern.de/xmlns/0.1" xmlns="http://quakeml.org/xmlns/bed/1.2">
  <eventParameters publicID="smi:local/e5e0e782-e50a-4240-9b0b-5e1777a0de0b">
    <event publicID="smi:de.erdbeben-in-bayern/event/20100622213947">
      <preferredOriginID>smi:local/22d17737-9a37-4509-8b51-9f727fb8d37a</preferredOriginID>
      <preferredMagnitudeID>smi:de.erdbeben-in-bayern/magnitude/a312310c-171e-442e-ac32-f241c5f6f9e7</preferredMagnitudeID>
      <creationInfo>
        <agencyID>Erdbebendienst Bayern</agencyID>
        <agencyURI>smi:de.erdbeben-in-bayern/agency</agencyURI>
        <author>megies</author>
        <creationTime>2014-09-19T14:58:18.281839Z</creationTime>
      </creationInfo>
      <origin publicID="smi:de.erdbeben-in-bayern/origin/2a917493-466c-4586-a9f0-249ad6efb8e8">
        <time>
          <value>2010-05-27T15:24:25.120781Z</value>
        </time>
        <latitude>
          <value>48.0459</value>
        </latitude>
        <longitude>
          <value>11.6478</value>
        </longitude>
        <depth>
          <value>4349.951</value>
          <uncertainty>469.737362752</uncertainty>
        </depth>
        <depthType>from location</depthType>
        <methodID>smi:de.erdbeben-in-bayern/location_method/NLLoc/1</methodID>
        <earthModelID>smi:de.erdbeben-in-bayern/earth_model/UH/1</earthModelID>
        <quality>
          <associatedPhaseCount>7</associatedPhaseCount>
          <usedPhaseCount>7</usedPhaseCount>
          <associatedStationCount>4</associatedStationCount>
          <usedStationCount>4</usedStationCount>
          <depthPhaseCount>0</depthPhaseCount>
          <standardError>0.019806</standardError>
          <azimuthalGap>139.0</azimuthalGap>
          <minimumDistance>0.0162641880402</minimumDistance>
          <maximumDistance>0.0764465192214</maximumDistance>
          <medianDistance>0.0311759391055</medianDistance>
          <ns0:usedPhaseCountP>4</ns0:usedPhaseCountP>
          <ns0:usedPhaseCountS>3</ns0:usedPhaseCountS>
        </quality>
        <originUncertainty>
          <preferredDescription>uncertainty ellipse</preferredDescription>
          <minHorizontalUncertainty>276.099939955</minHorizontalUncertainty>
          <maxHorizontalUncertainty>348.250441619</maxHorizontalUncertainty>
          <azimuthMaxHorizontalUncertainty>90.0</azimuthMaxHorizontalUncertainty>
        </originUncertainty>
        <arrival publicID="smi:de.erdbeben-in-bayern/arrival/bae792cc-00cd-4d28-8dd5-9a3e3c45d3e7">
          <pickID>smi:de.erdbeben-in-bayern/pick/e6399f04-a5b0-4994-88ce-8ab549d9c1d0</pickID>
          <phase>P</phase>
          <azimuth>346.9</azimuth>
          <distance>0.0364494956881</distance>
          <timeResidual>-0.0344</timeResidual>
          <timeWeight>1.2069</timeWeight>
        </arrival>
        <arrival publicID="smi:de.erdbeben-in-bayern/arrival/4d6a878c-047d-4010-9940-0e01ba19cd87">
          <pickID>smi:de.erdbeben-in-bayern/pick/f984a0e0-961f-403c-9694-ff3d5e2e56a2</pickID>
          <phase>S</phase>
          <azimuth>346.7</azimuth>
          <distance>0.0364494956881</distance>
          <timeResidual>0.0103</timeResidual>
          <timeWeight>1.2069</timeWeight>
        </arrival>
        <arrival publicID="smi:de.erdbeben-in-bayern/arrival/5415f977-02bf-4989-b78c-388cc4bc2db7">
          <pickID>smi:de.erdbeben-in-bayern/pick/8a165314-14f8-4fcd-9a65-aa4ba7451c61</pickID>
          <phase>P</phase>
          <azimuth>61.2</azimuth>
          <distance>0.0259023825229</distance>
          <timeResidual>0.018</timeResidual>
          <timeWeight>1.2069</timeWeight>
        </arrival>
        <arrival publicID="smi:de.erdbeben-in-bayern/arrival/d0f04782-a4cd-4d68-ac9a-c219c731c428">
          <pickID>smi:de.erdbeben-in-bayern/pick/0d44e64d-8506-40a2-963e-6dd1ab6c7540</pickID>
          <phase>S</phase>
          <azimuth>60.6</azimuth>
          <distance>0.0259023825229</distance>
          <timeResidual>0.0042</timeResidual>
          <timeWeight>0.4828</timeWeight>
        </arrival>
        <arrival publicID="smi:de.erdbeben-in-bayern/arrival/bd7071c4-4ce9-4935-9a43-22d477cda5c0">
          <pickID>smi:de.erdbeben-in-bayern/pick/e46ea7cd-d9c2-45c4-b8d7-6ebd27d54e2d</pickID>
          <phase>P</phase>
          <azimuth>207.0</azimuth>
          <distance>0.0162641880402</distance>
          <timeResidual>-0.015</timeResidual>
          <timeWeight>1.2069</timeWeight>
        </arrival>
        <arrival publicID="smi:de.erdbeben-in-bayern/arrival/0d284175-a504-4a0e-b972-ce953f56d5b1">
          <pickID>smi:de.erdbeben-in-bayern/pick/e5c97413-6b22-459c-832f-1d4051a82222</pickID>
          <phase>S</phase>
          <azimuth>207.4</azimuth>
          <distance>0.0162641880402</distance>
          <timeResidual>-0.0034</timeResidual>
          <timeWeight>0.4828</timeWeight>
        </arrival>
        <arrival publicID="smi:de.erdbeben-in-bayern/arrival/8f0861d2-d9ea-48b4-89b9-ba0b9f7fb32d">
          <pickID>smi:de.erdbeben-in-bayern/pick/3e683aba-fde1-4401-95e0-a7beb958d1e7</pickID>
          <phase>P</phase>
          <azimuth>259.4</azimuth>
          <distance>0.0764465192214</distance>
          <timeResidual>0.0207</timeResidual>
          <timeWeight>1.2069</timeWeight>
        </arrival>
      </origin>
      <origin publicID="smi:local/4ffdd07c-55e7-4dc1-90d4-93558323b086">
        <time>
          <value>2010-05-27T15:24:25.120781Z</value>
        </time>
        <latitude>
          <value>48.048128</value>
        </latitude>
        <longitude>
          <value>11.64652</value>
        </longitude>
        <depth>
          <value>4729.0</value>
        </depth>
        <methodID>smi:local/hypodd</methodID>
        <comment id="smi:local/1d9bd804-49a1-4552-b135-16084fd4b0b4">
          <text>Old HypoDD relocation, based on initial NonLinLoc absolute location.</text>
        </comment>
        <creationInfo>
          <creationTime>2012-02-01T00:00:00.000000Z</creationTime>
        </creationInfo>
      </origin>
      <origin publicID="smi:local/22d17737-9a37-4509-8b51-9f727fb8d37a">
        <time>
          <value>2010-05-27T15:24:25.120781Z</value>
        </time>
        <latitude>
          <value>48.0482777961</value>
        </latitude>
        <longitude>
          <value>11.6461378075</value>
        </longitude>
        <depth>
          <value>4798.0</value>
        </depth>
        <methodID>smi:local/master_event</methodID>
        <comment id="smi:local/22195aa9-03b4-44ee-8f50-f0a287ac42b1">
          <text>Old master-event location, based on initial NonLinLoc absolute location and subsequent HypoDD relocation. Absolute locations determined by HypoDD location of master events.</text>
        </comment>
        <creationInfo>
          <creationTime>2012-02-01T00:00:00.000000Z</creationTime>
        </creationInfo>
      </origin>
      <magnitude publicID="smi:de.erdbeben-in-bayern/magnitude/a312310c-171e-442e-ac32-f241c5f6f9e7">
        <mag>
          <value>0.650501974417</value>
          <uncertainty>0.318736821503</uncertainty>
          <confidenceLevel>68.3</confidenceLevel>
        </mag>
        <type>Ml</type>
        <originID>smi:de.erdbeben-in-bayern/origin/2a917493-466c-4586-a9f0-249ad6efb8e8</originID>
        <methodID>smi:de.erdbeben-in-bayern/magnitude_method/obspy/1</methodID>
        <stationCount>4</stationCount>
        <stationMagnitudeContribution>
          <stationMagnitudeID>smi:de.erdbeben-in-bayern/station_magnitude/897c6fc3-0168-496b-9b67-bcf448cb1626</stationMagnitudeID>
          <weight>0.25</weight>
        </stationMagnitudeContribution>
        <stationMagnitudeContribution>
          <stationMagnitudeID>smi:de.erdbeben-in-bayern/station_magnitude/ecfde41c-33a9-415e-a9eb-9291ea2c440c</stationMagnitudeID>
          <weight>0.25</weight>
        </stationMagnitudeContribution>
        <stationMagnitudeContribution>
          <stationMagnitudeID>smi:de.erdbeben-in-bayern/station_magnitude/62da8513-025c-4a1a-8fb5-9ceba0630c01</stationMagnitudeID>
          <weight>0.25</weight>
        </stationMagnitudeContribution>
        <stationMagnitudeContribution>
          <stationMagnitudeID>smi:de.erdbeben-in-bayern/station_magnitude/10e18d84-3c90-4496-845a-454c5265637d</stationMagnitudeID>
          <weight>0.25</weight>
        </stationMagnitudeContribution>
      </magnitude>
      <stationMagnitude publicID="smi:de.erdbeben-in-bayern/station_magnitude/897c6fc3-0168-496b-9b67-bcf448cb1626">
        <originID>smi:de.erdbeben-in-bayern/origin/2a917493-466c-4586-a9f0-249ad6efb8e8</originID>
        <mag>
          <value>0.429052049823</value>
        </mag>
        <methodID>smi:de.erdbeben-in-bayern/station_magnitude_method/obspyck/1</methodID>
        <waveformID locationCode="" networkCode="BW" stationCode="UH1"></waveformID>
      </stationMagnitude>
      <stationMagnitude publicID="smi:de.erdbeben-in-bayern/station_magnitude/ecfde41c-33a9-415e-a9eb-9291ea2c440c">
        <originID>smi:de.erdbeben-in-bayern/origin/2a917493-466c-4586-a9f0-249ad6efb8e8</originID>
        <mag>
          <value>0.829392279754</value>
        </mag>
        <methodID>smi:de.erdbeben-in-bayern/station_magnitude_method/obspyck/1</methodID>
        <waveformID locationCode="" networkCode="BW" stationCode="UH2"></waveformID>
      </stationMagnitude>
      <stationMagnitude publicID="smi:de.erdbeben-in-bayern/station_magnitude/62da8513-025c-4a1a-8fb5-9ceba0630c01">
        <originID>smi:de.erdbeben-in-bayern/origin/2a917493-466c-4586-a9f0-249ad6efb8e8</originID>
        <mag>
          <value>1.07453802204</value>
        </mag>
        <methodID>smi:de.erdbeben-in-bayern/station_magnitude_method/obspyck/1</methodID>
        <waveformID locationCode="" networkCode="BW" stationCode="UH3"></waveformID>
      </stationMagnitude>
      <stationMagnitude publicID="smi:de.erdbeben-in-bayern/station_magnitude/10e18d84-3c90-4496-845a-454c5265637d">
        <originID>smi:de.erdbeben-in-bayern/origin/2a917493-466c-4586-a9f0-249ad6efb8e8</originID>
        <mag>
          <value>0.269025546051</value>
        </mag>
        <methodID>smi:de.erdbeben-in-bayern/station_magnitude_method/obspyck/1</methodID>
        <waveformID locationCode="" networkCode="BW" stationCode="UH4"></waveformID>
      </stationMagnitude>
      <pick publicID="smi:de.erdbeben-in-bayern/pick/e6399f04-a5b0-4994-88ce-8ab549d9c1d0">
        <time>
          <value>2010-05-27T15:24:26.609999Z</value>
          <uncertainty>0.015</uncertainty>
        </time>
        <waveformID channelCode="EHZ" locationCode="" networkCode="BW" stationCode="UH1"></waveformID>
        <phaseHint>P</phaseHint>
        <polarity>negative</polarity>
        <ns0:weight>0</ns0:weight>
      </pick>
      <pick publicID="smi:de.erdbeben-in-bayern/pick/f984a0e0-961f-403c-9694-ff3d5e2e56a2">
        <time>
          <value>2010-05-27T15:24:27.964999Z</value>
          <uncertainty>0.045</uncertainty>
        </time>
        <waveformID channelCode="EHN" locationCode="" networkCode="BW" stationCode="UH1"></waveformID>
        <phaseHint>S</phaseHint>
        <ns0:weight>0</ns0:weight>
      </pick>
      <pick publicID="smi:de.erdbeben-in-bayern/pick/8a165314-14f8-4fcd-9a65-aa4ba7451c61">
        <time>
          <value>2010-05-27T15:24:26.515000Z</value>
          <uncertainty>0.01</uncertainty>
        </time>
        <waveformID channelCode="EHZ" locationCode="" networkCode="BW" stationCode="UH2"></waveformID>
        <phaseHint>P</phaseHint>
        <polarity>positive</polarity>
        <ns0:weight>0</ns0:weight>
      </pick>
      <pick publicID="smi:de.erdbeben-in-bayern/pick/0d44e64d-8506-40a2-963e-6dd1ab6c7540">
        <time>
          <value>2010-05-27T15:24:27.680000Z</value>
          <uncertainty>0.065</uncertainty>
        </time>
        <waveformID channelCode="EHN" locationCode="" networkCode="BW" stationCode="UH2"></waveformID>
        <phaseHint>S</phaseHint>
        <ns0:weight>1</ns0:weight>
      </pick>
      <pick publicID="smi:de.erdbeben-in-bayern/pick/e46ea7cd-d9c2-45c4-b8d7-6ebd27d54e2d">
        <time>
          <value>2010-05-27T15:24:26.400000Z</value>
          <uncertainty>0.01</uncertainty>
        </time>
        <waveformID channelCode="EHZ" locationCode="" networkCode="BW" stationCode="UH3"></waveformID>
        <phaseHint>P</phaseHint>
        <polarity>negative</polarity>
        <ns0:weight>0</ns0:weight>
      </pick>
      <pick publicID="smi:de.erdbeben-in-bayern/pick/e5c97413-6b22-459c-832f-1d4051a82222">
        <time>
          <value>2010-05-27T15:24:27.495000Z</value>
          <uncertainty>0.04</uncertainty>
        </time>
        <waveformID channelCode="EHN" locationCode="" networkCode="BW" stationCode="UH3"></waveformID>
        <phaseHint>S</phaseHint>
        <ns0:weight>1</ns0:weight>
      </pick>
      <pick publicID="smi:de.erdbeben-in-bayern/pick/3e683aba-fde1-4401-95e0-a7beb958d1e7">
        <time>
          <value>2010-05-27T15:24:27.404999Z</value>
          <uncertainty>0.025</uncertainty>
        </time>
        <waveformID channelCode="EHZ" locationCode="" networkCode="BW" stationCode="UH4"></waveformID>
        <phaseHint>P</phaseHint>
        <ns0:weight>0</ns0:weight>
      </pick>
      <ns0:public>false</ns0:public>
      <ns0:evaluationMode>manual</ns0:evaluationMode>
    </event>
    <event publicID="smi:de.erdbeben-in-bayern/event/20130425141758">
      <preferredOriginID>smi:de.erdbeben-in-bayern/origin/c151d3d7-abc3-4b00-a5c2-23de818be1d8</preferredOriginID>
      <preferredMagnitudeID>smi:de.erdbeben-in-bayern/magnitude/59257edc-dff2-43ad-9b63-0407b6251045</preferredMagnitudeID>
      <type>induced or triggered event</type>
      <creationInfo>
        <agencyID>Erdbebendienst Bayern</agencyID>
        <agencyURI>smi:de.erdbeben-in-bayern/agency</agencyURI>
        <author>megies</author>
        <creationTime>2014-09-19T14:58:18.281839Z</creationTime>
      </creationInfo>
      <origin publicID="smi:de.erdbeben-in-bayern/origin/c151d3d7-abc3-4b00-a5c2-23de818be1d8">
        <time>
          <value>2010-05-27T15:26:40.125939Z</value>
        </time>
        <latitude>
          <value>48.0456835734</value>
        </latitude>
        <longitude>
          <value>11.6443779311</value>
        </longitude>
        <depth>
          <value>4863.086</value>
          <uncertainty>2156.65591188</uncertainty>
        </depth>
        <depthType>from location</depthType>
        <methodID>smi:de.erdbeben-in-bayern/location_method/NLLoc/1</methodID>
        <earthModelID>smi:de.erdbeben-in-bayern/earth_model/UH/1</earthModelID>
        <quality>
          <associatedPhaseCount>4</associatedPhaseCount>
          <usedPhaseCount>4</usedPhaseCount>
          <associatedStationCount>4</associatedStationCount>
          <usedStationCount>3</usedStationCount>
          <depthPhaseCount>0</depthPhaseCount>
          <standardError>0.001121</standardError>
          <azimuthalGap>157.0</azimuthalGap>
          <minimumDistance>0.015354419588</minimumDistance>
          <maximumDistance>0.0362364642035</maximumDistance>
          <medianDistance>0.0280504860831</medianDistance>
          <ns0:usedPhaseCountP>2</ns0:usedPhaseCountP>
          <ns0:usedPhaseCountS>2</ns0:usedPhaseCountS>
        </quality>
        <originUncertainty>
          <preferredDescription>uncertainty ellipse</preferredDescription>
          <minHorizontalUncertainty>1841.92778023</minHorizontalUncertainty>
          <maxHorizontalUncertainty>2905.12260158</maxHorizontalUncertainty>
          <azimuthMaxHorizontalUncertainty>0.0</azimuthMaxHorizontalUncertainty>
        </originUncertainty>
        <arrival publicID="smi:de.erdbeben-in-bayern/arrival/56564466-1d0b-46c3-ae44-2dad9c982428">
          <pickID>smi:de.erdbeben-in-bayern/pick/43a92327-4e3b-4e37-b282-466f3eb35edf</pickID>
          <phase>P</phase>
          <azimuth>350.3</azimuth>
          <distance>0.0362364642035</distance>
          <timeResidual>-0.0004</timeResidual>
          <timeWeight>1.6092</timeWeight>
        </arrival>
        <arrival publicID="smi:de.erdbeben-in-bayern/arrival/d5c5c9f8-942a-49f7-ae41-f4ce614cf0fa">
          <pickID>smi:de.erdbeben-in-bayern/pick/0c3e44a7-a0a9-4325-b1fb-b6c208dd7699</pickID>
          <phase>P</phase>
          <azimuth>63.0</azimuth>
          <distance>0.0280504860831</distance>
          <timeResidual>0.0023</timeResidual>
          <timeWeight>0.612</timeWeight>
        </arrival>
        <arrival publicID="smi:de.erdbeben-in-bayern/arrival/4cb62308-b4ab-4f16-bb92-486ac7950fd0">
          <pickID>smi:de.erdbeben-in-bayern/pick/158c26a5-0e7c-43b2-8e84-e940f242f35c</pickID>
          <phase>S</phase>
          <azimuth>62.3</azimuth>
          <distance>0.0280504860831</distance>
          <timeResidual>0.0008</timeResidual>
          <timeWeight>0.612</timeWeight>
        </arrival>
        <arrival publicID="smi:de.erdbeben-in-bayern/arrival/e59f5852-96f9-42be-bdd8-4a25036ad8de">
          <pickID>smi:de.erdbeben-in-bayern/pick/48a98ca2-e114-4792-bd21-ae197346f7ed</pickID>
          <phase>S</phase>
          <azimuth>200.2</azimuth>
          <distance>0.015354419588</distance>
          <timeResidual>-0.001</timeResidual>
          <timeWeight>1.1667</timeWeight>
        </arrival>
      </origin>
      <magnitude publicID="smi:de.erdbeben-in-bayern/magnitude/59257edc-dff2-43ad-9b63-0407b6251045">
        <mag>
          <value>-0.133361971009</value>
          <uncertainty>0.160146167974</uncertainty>
          <confidenceLevel>68.3</confidenceLevel>
        </mag>
        <type>Ml</type>
        <originID>smi:de.erdbeben-in-bayern/origin/c151d3d7-abc3-4b00-a5c2-23de818be1d8</originID>
        <methodID>smi:de.erdbeben-in-bayern/magnitude_method/obspy/1</methodID>
        <stationCount>2</stationCount>
        <stationMagnitudeContribution>
          <stationMagnitudeID>smi:de.erdbeben-in-bayern/station_magnitude/897e50ea-c968-4507-8245-12c53892aef4</stationMagnitudeID>
          <weight>0.5</weight>
        </stationMagnitudeContribution>
        <stationMagnitudeContribution>
          <stationMagnitudeID>smi:de.erdbeben-in-bayern/station_magnitude/a948bcb2-2fbf-4caa-950a-eda033bebe87</stationMagnitudeID>
          <weight>0.5</weight>
        </stationMagnitudeContribution>
      </magnitude>
      <stationMagnitude publicID="smi:de.erdbeben-in-bayern/station_magnitude/897e50ea-c968-4507-8245-12c53892aef4">
        <originID>smi:de.erdbeben-in-bayern/origin/c151d3d7-abc3-4b00-a5c2-23de818be1d8</originID>
        <mag>
          <value>0.0267841969658</value>
        </mag>
        <methodID>smi:de.erdbeben-in-bayern/station_magnitude_method/obspyck/1</methodID>
        <waveformID locationCode="" networkCode="BW" stationCode="UH2"></waveformID>
      </stationMagnitude>
      <stationMagnitude publicID="smi:de.erdbeben-in-bayern/station_magnitude/a948bcb2-2fbf-4caa-950a-eda033bebe87">
        <originID>smi:de.erdbeben-in-bayern/origin/c151d3d7-abc3-4b00-a5c2-23de818be1d8</originID>
        <mag>
          <value>-0.293508138983</value>
        </mag>
        <methodID>smi:de.erdbeben-in-bayern/station_magnitude_method/obspyck/1</methodID>
        <waveformID locationCode="" networkCode="BW" stationCode="UH3"></waveformID>
      </stationMagnitude>
      <pick publicID="smi:de.erdbeben-in-bayern/pick/43a92327-4e3b-4e37-b282-466f3eb35edf">
        <time>
          <value>2010-05-27T15:26:41.700000Z</value>
          <uncertainty>0.05</uncertainty>
          <lowerUncertainty>0.025</lowerUncertainty>
          <upperUncertainty>0.025</upperUncertainty>
        </time>
        <waveformID channelCode="EHZ" locationCode="" networkCode="BW" stationCode="UH1"></waveformID>
        <phaseHint>P</phaseHint>
      </pick>
      <pick publicID="smi:de.erdbeben-in-bayern/pick/0c3e44a7-a0a9-4325-b1fb-b6c208dd7699">
